[{"OBJECT_NAME":"STARLINK-37035","OBJECT_ID":"2026-050P","EPOCH":"2026-03-28T06:22:36.162912","MEAN_MOTION":15.80997442,"ECCENTRICITY":8.689e-5,"INCLINATION":53.1596,"RA_OF_ASC_NODE":188.6315,"ARG_OF_PERICENTER":89.928,"MEAN_ANOMALY":270.1842,"EPHEMERIS_TYPE":0,"CLASSIFICATION_TYPE":"U","NORAD_CAT_ID":68180,"ELEMENT_SET_NO":999,"REV_AT_EPOCH":341,"BSTAR":0.0013404637,"MEAN_MOTION_DOT":0.00274002,"MEAN_MOTION_DDOT":0},{"OBJECT_NAME":"STARLINK-37032","OBJECT_ID":"2026-050Q","EPOCH":"2026-03-28T06:21:31.344768","MEAN_MOTION":15.80999214,"ECCENTRICITY":9.03e-5,"INCLINATION":53.1594,"RA_OF_ASC_NODE":188.6264,"ARG_OF_PERICENTER":69.8591,"MEAN_ANOMALY":290.2529,"EPHEMERIS_TYPE":0,"CLASSIFICATION_TYPE":"U","NORAD_CAT_ID":68181,"ELEMENT_SET_NO":999,"REV_AT_EPOCH":341,"BSTAR":0.0013379918,"MEAN_MOTION_DOT":0.00273501,"MEAN_MOTION_DDOT":0},{"OBJECT_NAME":"STARLINK-37082","OBJECT_ID":"2026-050R","EPOCH":"2026-03-28T06:20:26.558592","MEAN_MOTION":15.809829,"ECCENTRICITY":0.00011089,"INCLINATION":53.1594,"RA_OF_ASC_NODE":188.6212,"ARG_OF_PERICENTER":80.7072,"MEAN_ANOMALY":279.4076,"EPHEMERIS_TYPE":0,"CLASSIFICATION_TYPE":"U","NORAD_CAT_ID":68182,"ELEMENT_SET_NO":999,"REV_AT_EPOCH":341,"BSTAR":0.0012191218,"MEAN_MOTION_DOT":0.00248214,"MEAN_MOTION_DDOT":0},{"OBJECT_NAME":"STARLINK-37102","OBJECT_ID":"2026-050S","EPOCH":"2026-03-28T06:19:21.743904","MEAN_MOTION":15.80982578,"ECCENTRICITY":7.953e-5,"INCLINATION":53.1593,"RA_OF_ASC_NODE":188.6162,"ARG_OF_PERICENTER":71.3405,"MEAN_ANOMALY":288.7704,"EPHEMERIS_TYPE":0,"CLASSIFICATION_TYPE":"U","NORAD_CAT_ID":68183,"ELEMENT_SET_NO":999,"REV_AT_EPOCH":341,"BSTAR":0.0011732241,"MEAN_MOTION_DOT":0.00238572,"MEAN_MOTION_DDOT":0},{"OBJECT_NAME":"STARLINK-36964","OBJECT_ID":"2026-050T","EPOCH":"2026-03-28T06:18:16.981056","MEAN_MOTION":15.80984965,"ECCENTRICITY":0.00010388,"INCLINATION":53.1591,"RA_OF_ASC_NODE":188.6111,"ARG_OF_PERICENTER":49.2533,"MEAN_ANOMALY":310.8579,"EPHEMERIS_TYPE":0,"CLASSIFICATION_TYPE":"U","NORAD_CAT_ID":68184,"ELEMENT_SET_NO":999,"REV_AT_EPOCH":341,"BSTAR":0.0012343929,"MEAN_MOTION_DOT":0.00251452,"MEAN_MOTION_DDOT":0},{"OBJECT_NAME":"STARLINK-37061","OBJECT_ID":"2026-050U","EPOCH":"2026-03-28T06:17:11.990976","MEAN_MOTION":15.80969833,"ECCENTRICITY":0.00010604,"INCLINATION":53.1594,"RA_OF_ASC_NODE":188.6064,"ARG_OF_PERICENTER":70.1919,"MEAN_ANOMALY":289.9218,"EPHEMERIS_TYPE":0,"CLASSIFICATION_TYPE":"U","NORAD_CAT_ID":68185,"ELEMENT_SET_NO":999,"REV_AT_EPOCH":341,"BSTAR":0.0015173142,"MEAN_MOTION_DOT":0.00311203,"MEAN_MOTION_DDOT":0},{"OBJECT_NAME":"STARLINK-37079","OBJECT_ID":"2026-050V","EPOCH":"2026-03-28T06:16:07.527936","MEAN_MOTION":15.81013884,"ECCENTRICITY":0.00015153,"INCLINATION":53.1593,"RA_OF_ASC_NODE":188.6009,"ARG_OF_PERICENTER":39.4073,"MEAN_ANOMALY":320.706,"EPHEMERIS_TYPE":0,"CLASSIFICATION_TYPE":"U","NORAD_CAT_ID":68186,"ELEMENT_SET_NO":999,"REV_AT_EPOCH":341,"BSTAR":0.0016395543,"MEAN_MOTION_DOT":0.00338074,"MEAN_MOTION_DDOT":0},{"OBJECT_NAME":"STARLINK-37006","OBJECT_ID":"2026-050W","EPOCH":"2026-03-28T06:15:02.457504","MEAN_MOTION":15.81004775,"ECCENTRICITY":9.753e-5,"INCLINATION":53.1593,"RA_OF_ASC_NODE":188.5963,"ARG_OF_PERICENTER":53.5188,"MEAN_ANOMALY":306.5925,"EPHEMERIS_TYPE":0,"CLASSIFICATION_TYPE":"U","NORAD_CAT_ID":68187,"ELEMENT_SET_NO":999,"REV_AT_EPOCH":341,"BSTAR":0.0013959967,"MEAN_MOTION_DOT":0.00285876,"MEAN_MOTION_DDOT":0},{"OBJECT_NAME":"STARLINK-36340","OBJECT_ID":"2026-050X","EPOCH":"2026-03-28T06:13:57.705888","MEAN_MOTION":15.80994819,"ECCENTRICITY":0.00010178,"INCLINATION":53.1595,"RA_OF_ASC_NODE":188.5908,"ARG_OF_PERICENTER":73.5048,"MEAN_ANOMALY":286.6086,"EPHEMERIS_TYPE":0,"CLASSIFICATION_TYPE":"U","NORAD_CAT_ID":68188,"ELEMENT_SET_NO":999,"REV_AT_EPOCH":331,"BSTAR":0.0013111469,"MEAN_MOTION_DOT":0.00267764,"MEAN_MOTION_DDOT":0},{"OBJECT_NAME":"STARLINK-36305","OBJECT_ID":"2026-050Y","EPOCH":"2026-03-28T06:12:52.943040","MEAN_MOTION":15.80988325,"ECCENTRICITY":0.00011191,"INCLINATION":53.1593,"RA_OF_ASC_NODE":188.5862,"ARG_OF_PERICENTER":73.4226,"MEAN_ANOMALY":286.692,"EPHEMERIS_TYPE":0,"CLASSIFICATION_TYPE":"U","NORAD_CAT_ID":68189,"ELEMENT_SET_NO":999,"REV_AT_EPOCH":331,"BSTAR":0.0012928235,"MEAN_MOTION_DOT":0.0026381,"MEAN_MOTION_DDOT":0},{"OBJECT_NAME":"STARLINK-37071","OBJECT_ID":"2026-050Z","EPOCH":"2026-03-28T04:39:41.301792","MEAN_MOTION":15.80923627,"ECCENTRICITY":8.777e-5,"INCLINATION":53.1593,"RA_OF_ASC_NODE":188.8925,"ARG_OF_PERICENTER":109.6938,"MEAN_ANOMALY":250.4179,"EPHEMERIS_TYPE":0,"CLASSIFICATION_TYPE":"U","NORAD_CAT_ID":68190,"ELEMENT_SET_NO":999,"REV_AT_EPOCH":340,"BSTAR":0.00093488429,"MEAN_MOTION_DOT":0.00188335,"MEAN_MOTION_DDOT":0},{"OBJECT_NAME":"STARLINK-37091","OBJECT_ID":"2026-050AA","EPOCH":"2026-03-28T04:38:36.011040","MEAN_MOTION":15.81022903,"ECCENTRICITY":7.67e-5,"INCLINATION":53.1589,"RA_OF_ASC_NODE":188.8869,"ARG_OF_PERICENTER":121.1772,"MEAN_ANOMALY":238.9326,"EPHEMERIS_TYPE":0,"CLASSIFICATION_TYPE":"U","NORAD_CAT_ID":68191,"ELEMENT_SET_NO":999,"REV_AT_EPOCH":340,"BSTAR":0.0018093634,"MEAN_MOTION_DOT":0.00374954,"MEAN_MOTION_DDOT":0},{"OBJECT_NAME":"STARLINK-37098","OBJECT_ID":"2026-050AB","EPOCH":"2026-03-28T04:37:31.273248","MEAN_MOTION":15.81020194,"ECCENTRICITY":9.287e-5,"INCLINATION":53.1593,"RA_OF_ASC_NODE":188.8826,"ARG_OF_PERICENTER":126.3804,"MEAN_ANOMALY":233.7304,"EPHEMERIS_TYPE":0,"CLASSIFICATION_TYPE":"U","NORAD_CAT_ID":68192,"ELEMENT_SET_NO":999,"REV_AT_EPOCH":340,"BSTAR":0.0018371256,"MEAN_MOTION_DOT":0.00380933,"MEAN_MOTION_DDOT":0},{"OBJECT_NAME":"STARLINK-37090","OBJECT_ID":"2026-050AC","EPOCH":"2026-03-28T06:06:24.055776","MEAN_MOTION":15.8097781,"ECCENTRICITY":9.258e-5,"INCLINATION":53.1596,"RA_OF_ASC_NODE":188.5554,"ARG_OF_PERICENTER":60.0993,"MEAN_ANOMALY":300.0121,"EPHEMERIS_TYPE":0,"CLASSIFICATION_TYPE":"U","NORAD_CAT_ID":68193,"ELEMENT_SET_NO":999,"REV_AT_EPOCH":341,"BSTAR":0.0011725031,"MEAN_MOTION_DOT":0.00238365,"MEAN_MOTION_DDOT":0},{"OBJECT_NAME":"STARLINK-37093","OBJECT_ID":"2026-050AD","EPOCH":"2026-03-28T06:11:48.257952","MEAN_MOTION":15.80978649,"ECCENTRICITY":0.0001815,"INCLINATION":53.1593,"RA_OF_ASC_NODE":188.5799,"ARG_OF_PERICENTER":37.5396,"MEAN_ANOMALY":322.5753,"EPHEMERIS_TYPE":0,"CLASSIFICATION_TYPE":"U","NORAD_CAT_ID":68194,"ELEMENT_SET_NO":999,"REV_AT_EPOCH":341,"BSTAR":0.0017750284,"MEAN_MOTION_DOT":0.003667,"MEAN_MOTION_DDOT":0},{"OBJECT_NAME":"STARLINK-37058","OBJECT_ID":"2026-050AE","EPOCH":"2026-03-28T03:05:24.357696","MEAN_MOTION":15.80978007,"ECCENTRICITY":5.227e-5,"INCLINATION":53.1592,"RA_OF_ASC_NODE":189.1934,"ARG_OF_PERICENTER":105.9168,"MEAN_ANOMALY":254.1912,"EPHEMERIS_TYPE":0,"CLASSIFICATION_TYPE":"U","NORAD_CAT_ID":68195,"ELEMENT_SET_NO":999,"REV_AT_EPOCH":183,"BSTAR":0.0012726304,"MEAN_MOTION_DOT":0.00259429,"MEAN_MOTION_DDOT":0}]
