STARLINK-37035          
1 68180U 26050P   26087.26569633  .00274002  00000+0  13405-2 0  9998
2 68180  53.1596 188.6315 0000868  89.9280 270.1842 15.80997442  3415
STARLINK-37032          
1 68181U 26050Q   26087.26494612  .00273501  00000+0  13380-2 0  9998
2 68181  53.1594 188.6264 0000903  69.8591 290.2529 15.80999214  3413
STARLINK-37082          
1 68182U 26050R   26087.26419628  .00248214  00000+0  12191-2 0  9995
2 68182  53.1594 188.6212 0001108  80.7072 279.4076 15.80982900  3411
STARLINK-37102          
1 68183U 26050S   26087.26344611  .00238572  00000+0  11732-2 0  9991
2 68183  53.1593 188.6162 0000795  71.3405 288.7704 15.80982578  3414
STARLINK-36964          
1 68184U 26050T   26087.26269654  .00251452  00000+0  12344-2 0  9997
2 68184  53.1591 188.6111 0001038  49.2533 310.8579 15.80984965  3413
STARLINK-37061          
1 68185U 26050U   26087.26194434  .00311203  00000+0  15173-2 0  9995
2 68185  53.1594 188.6064 0001060  70.1919 289.9218 15.80969833  3413
STARLINK-37079          
1 68186U 26050V   26087.26119824  .00338074  00000+0  16396-2 0  9999
2 68186  53.1593 188.6009 0001515  39.4073 320.7060 15.81013884  3412
STARLINK-37006          
1 68187U 26050W   26087.26044511  .00285876  00000+0  13960-2 0  9995
2 68187  53.1593 188.5963 0000975  53.5188 306.5925 15.81004775  3415
STARLINK-36340          
1 68188U 26050X   26087.25969567  .00267764  00000+0  13111-2 0  9996
2 68188  53.1595 188.5908 0001017  73.5048 286.6086 15.80994819  3313
STARLINK-36305          
1 68189U 26050Y   26087.25894610  .00263810  00000+0  12928-2 0  9996
2 68189  53.1593 188.5862 0001119  73.4226 286.6920 15.80988325  3313
STARLINK-37071          
1 68190U 26050Z   26087.19422803  .00188335  00000+0  93488-3 0  9991
2 68190  53.1593 188.8925 0000877 109.6938 250.4179 15.80923627  3409
STARLINK-37091          
1 68191U 26050AA  26087.19347235  .00374954  00000+0  18094-2 0  9990
2 68191  53.1589 188.8869 0000767 121.1772 238.9326 15.81022903  3408
STARLINK-37098          
1 68192U 26050AB  26087.19272307  .00380933  00000+0  18371-2 0  9990
2 68192  53.1593 188.8826 0000928 126.3804 233.7304 15.81020194  3408
STARLINK-37090          
1 68193U 26050AC  26087.25444509  .00238365  00000+0  11725-2 0  9990
2 68193  53.1596 188.5554 0000925  60.0993 300.0121 15.80977810  3418
STARLINK-37093          
1 68194U 26050AD  26087.25819743  .00366700  00000+0  17750-2 0  9996
2 68194  53.1593 188.5799 0001815  37.5396 322.5753 15.80978649  3413
STARLINK-37058          
1 68195U 26050AE  26087.12875414  .00259429  00000+0  12726-2 0  9997
2 68195  53.1592 189.1934 0000522 105.9168 254.1912 15.80978007  1831
